KUIPER-00136            
1 65962U 25228R   25339.41918875  .00055251  00000+0  16287-2 0  9995
2 65962  51.8800  55.7354 0005774 335.1668  24.9039 15.34468380  9295
KUIPER-00137            
1 65963U 25228S   25339.49926597  .00059465  00000+0  16941-2 0  9992
2 65963  51.8800  55.5296 0005946   3.1568 356.9454 15.35506811  9305
KUIPER-00138            
1 65964U 25228T   25339.50314245  .00050636  00000+0  14477-2 0  9999
2 65964  51.8796  55.5461 0007471 358.4577   1.6384 15.35457264  9308
KUIPER-00140            
1 65965U 25228U   25339.50919743  .00054182  00000+0  15725-2 0  9991
2 65965  51.8801  55.5903 0007560 355.9548   4.1375 15.34955429  9309
KUIPER-00141            
1 65966U 25228V   25339.48728134  .00053261  00000+0  14959-2 0  9996
2 65966  51.8814  55.4423 0005726 345.7887  14.2937 15.36002963  9309
KUIPER-00146            
1 65967U 25228W   25339.49566352  .00038231  00000+0  10928-2 0  9992
2 65967  51.8813  55.5077 0006673 345.8775  14.2023 15.35598770  9305
KUIPER-00149            
1 65968U 25228X   25339.93862749  .00052329  00000+0  14734-2 0  9994
2 65968  51.8816  53.2221 0005627 346.5150  13.5685 15.35933457  9376
KUIPER-00154            
1 65969U 25228Y   25339.94259461  .00053978  00000+0  15313-2 0  9992
2 65969  51.8805  53.2469 0005945 339.9050  20.1702 15.35681429  9370
