<?xml version="1.0" encoding="UTF-8"?>
<ndm xmlns:xsi="http://www.w3.org/2001/XMLSchema-instance" xsi:noNamespaceSchemaLocation="https://sanaregistry.org/r/ndmxml_unqualified/ndmxml-2.0.0-master-2.0.xsd">
<omm id="CCSDS_OMM_VERS" version="2.0">
<header><CREATION_DATE/><ORIGINATOR/></header><body><segment><metadata><OBJECT_NAME>KUIPER-00136</OBJECT_NAME><OBJECT_ID>2025-228R</OBJECT_ID><CENTER_NAME>EARTH</CENTER_NAME><REF_FRAME>TEME</REF_FRAME><TIME_SYSTEM>UTC</TIME_SYSTEM><MEAN_ELEMENT_THEORY>SGP4</MEAN_ELEMENT_THEORY></metadata><data><meanElements><EPOCH>2025-12-05T10:03:37.908000</EPOCH><MEAN_MOTION>15.34468380</MEAN_MOTION><ECCENTRICITY>.00057748</ECCENTRICITY><INCLINATION>51.8800</INCLINATION><RA_OF_ASC_NODE>55.7354</RA_OF_ASC_NODE><ARG_OF_PERICENTER>335.1668</ARG_OF_PERICENTER><MEAN_ANOMALY>24.9039</MEAN_ANOMALY></meanElements><tleParameters><EPHEMERIS_TYPE>0</EPHEMERIS_TYPE><CLASSIFICATION_TYPE>U</CLASSIFICATION_TYPE><NORAD_CAT_ID>65962</NORAD_CAT_ID><ELEMENT_SET_NO>999</ELEMENT_SET_NO><REV_AT_EPOCH>929</REV_AT_EPOCH><BSTAR>.16286772E-2</BSTAR><MEAN_MOTION_DOT>.55251E-3</MEAN_MOTION_DOT><MEAN_MOTION_DDOT>0</MEAN_MOTION_DDOT></tleParameters></data></segment></body></omm>
<omm id="CCSDS_OMM_VERS" version="2.0">
<header><CREATION_DATE/><ORIGINATOR/></header><body><segment><metadata><OBJECT_NAME>KUIPER-00137</OBJECT_NAME><OBJECT_ID>2025-228S</OBJECT_ID><CENTER_NAME>EARTH</CENTER_NAME><REF_FRAME>TEME</REF_FRAME><TIME_SYSTEM>UTC</TIME_SYSTEM><MEAN_ELEMENT_THEORY>SGP4</MEAN_ELEMENT_THEORY></metadata><data><meanElements><EPOCH>2025-12-05T11:58:56.579808</EPOCH><MEAN_MOTION>15.35506811</MEAN_MOTION><ECCENTRICITY>.00059465</ECCENTRICITY><INCLINATION>51.8800</INCLINATION><RA_OF_ASC_NODE>55.5296</RA_OF_ASC_NODE><ARG_OF_PERICENTER>3.1568</ARG_OF_PERICENTER><MEAN_ANOMALY>356.9454</MEAN_ANOMALY></meanElements><tleParameters><EPHEMERIS_TYPE>0</EPHEMERIS_TYPE><CLASSIFICATION_TYPE>U</CLASSIFICATION_TYPE><NORAD_CAT_ID>65963</NORAD_CAT_ID><ELEMENT_SET_NO>999</ELEMENT_SET_NO><REV_AT_EPOCH>930</REV_AT_EPOCH><BSTAR>.16940898E-2</BSTAR><MEAN_MOTION_DOT>.59465E-3</MEAN_MOTION_DOT><MEAN_MOTION_DDOT>0</MEAN_MOTION_DDOT></tleParameters></data></segment></body></omm>
<omm id="CCSDS_OMM_VERS" version="2.0">
<header><CREATION_DATE/><ORIGINATOR/></header><body><segment><metadata><OBJECT_NAME>KUIPER-00138</OBJECT_NAME><OBJECT_ID>2025-228T</OBJECT_ID><CENTER_NAME>EARTH</CENTER_NAME><REF_FRAME>TEME</REF_FRAME><TIME_SYSTEM>UTC</TIME_SYSTEM><MEAN_ELEMENT_THEORY>SGP4</MEAN_ELEMENT_THEORY></metadata><data><meanElements><EPOCH>2025-12-05T12:04:31.507680</EPOCH><MEAN_MOTION>15.35457264</MEAN_MOTION><ECCENTRICITY>.00074713</ECCENTRICITY><INCLINATION>51.8796</INCLINATION><RA_OF_ASC_NODE>55.5461</RA_OF_ASC_NODE><ARG_OF_PERICENTER>358.4577</ARG_OF_PERICENTER><MEAN_ANOMALY>1.6384</MEAN_ANOMALY></meanElements><tleParameters><EPHEMERIS_TYPE>0</EPHEMERIS_TYPE><CLASSIFICATION_TYPE>U</CLASSIFICATION_TYPE><NORAD_CAT_ID>65964</NORAD_CAT_ID><ELEMENT_SET_NO>999</ELEMENT_SET_NO><REV_AT_EPOCH>930</REV_AT_EPOCH><BSTAR>.14477265E-2</BSTAR><MEAN_MOTION_DOT>.50636E-3</MEAN_MOTION_DOT><MEAN_MOTION_DDOT>0</MEAN_MOTION_DDOT></tleParameters></data></segment></body></omm>
<omm id="CCSDS_OMM_VERS" version="2.0">
<header><CREATION_DATE/><ORIGINATOR/></header><body><segment><metadata><OBJECT_NAME>KUIPER-00140</OBJECT_NAME><OBJECT_ID>2025-228U</OBJECT_ID><CENTER_NAME>EARTH</CENTER_NAME><REF_FRAME>TEME</REF_FRAME><TIME_SYSTEM>UTC</TIME_SYSTEM><MEAN_ELEMENT_THEORY>SGP4</MEAN_ELEMENT_THEORY></metadata><data><meanElements><EPOCH>2025-12-05T12:13:14.657952</EPOCH><MEAN_MOTION>15.34955429</MEAN_MOTION><ECCENTRICITY>.00075604</ECCENTRICITY><INCLINATION>51.8801</INCLINATION><RA_OF_ASC_NODE>55.5903</RA_OF_ASC_NODE><ARG_OF_PERICENTER>355.9548</ARG_OF_PERICENTER><MEAN_ANOMALY>4.1375</MEAN_ANOMALY></meanElements><tleParameters><EPHEMERIS_TYPE>0</EPHEMERIS_TYPE><CLASSIFICATION_TYPE>U</CLASSIFICATION_TYPE><NORAD_CAT_ID>65965</NORAD_CAT_ID><ELEMENT_SET_NO>999</ELEMENT_SET_NO><REV_AT_EPOCH>930</REV_AT_EPOCH><BSTAR>.15725415E-2</BSTAR><MEAN_MOTION_DOT>.54182E-3</MEAN_MOTION_DOT><MEAN_MOTION_DDOT>0</MEAN_MOTION_DDOT></tleParameters></data></segment></body></omm>
<omm id="CCSDS_OMM_VERS" version="2.0">
<header><CREATION_DATE/><ORIGINATOR/></header><body><segment><metadata><OBJECT_NAME>KUIPER-00141</OBJECT_NAME><OBJECT_ID>2025-228V</OBJECT_ID><CENTER_NAME>EARTH</CENTER_NAME><REF_FRAME>TEME</REF_FRAME><TIME_SYSTEM>UTC</TIME_SYSTEM><MEAN_ELEMENT_THEORY>SGP4</MEAN_ELEMENT_THEORY></metadata><data><meanElements><EPOCH>2025-12-05T11:41:41.107776</EPOCH><MEAN_MOTION>15.36002963</MEAN_MOTION><ECCENTRICITY>.00057264</ECCENTRICITY><INCLINATION>51.8814</INCLINATION><RA_OF_ASC_NODE>55.4423</RA_OF_ASC_NODE><ARG_OF_PERICENTER>345.7887</ARG_OF_PERICENTER><MEAN_ANOMALY>14.2937</MEAN_ANOMALY></meanElements><tleParameters><EPHEMERIS_TYPE>0</EPHEMERIS_TYPE><CLASSIFICATION_TYPE>U</CLASSIFICATION_TYPE><NORAD_CAT_ID>65966</NORAD_CAT_ID><ELEMENT_SET_NO>999</ELEMENT_SET_NO><REV_AT_EPOCH>930</REV_AT_EPOCH><BSTAR>.14958627E-2</BSTAR><MEAN_MOTION_DOT>.53261E-3</MEAN_MOTION_DOT><MEAN_MOTION_DDOT>0</MEAN_MOTION_DDOT></tleParameters></data></segment></body></omm>
<omm id="CCSDS_OMM_VERS" version="2.0">
<header><CREATION_DATE/><ORIGINATOR/></header><body><segment><metadata><OBJECT_NAME>KUIPER-00146</OBJECT_NAME><OBJECT_ID>2025-228W</OBJECT_ID><CENTER_NAME>EARTH</CENTER_NAME><REF_FRAME>TEME</REF_FRAME><TIME_SYSTEM>UTC</TIME_SYSTEM><MEAN_ELEMENT_THEORY>SGP4</MEAN_ELEMENT_THEORY></metadata><data><meanElements><EPOCH>2025-12-05T11:53:45.328128</EPOCH><MEAN_MOTION>15.35598770</MEAN_MOTION><ECCENTRICITY>.00066733</ECCENTRICITY><INCLINATION>51.8813</INCLINATION><RA_OF_ASC_NODE>55.5077</RA_OF_ASC_NODE><ARG_OF_PERICENTER>345.8775</ARG_OF_PERICENTER><MEAN_ANOMALY>14.2023</MEAN_ANOMALY></meanElements><tleParameters><EPHEMERIS_TYPE>0</EPHEMERIS_TYPE><CLASSIFICATION_TYPE>U</CLASSIFICATION_TYPE><NORAD_CAT_ID>65967</NORAD_CAT_ID><ELEMENT_SET_NO>999</ELEMENT_SET_NO><REV_AT_EPOCH>930</REV_AT_EPOCH><BSTAR>.10927676E-2</BSTAR><MEAN_MOTION_DOT>.38231E-3</MEAN_MOTION_DOT><MEAN_MOTION_DDOT>0</MEAN_MOTION_DDOT></tleParameters></data></segment></body></omm>
<omm id="CCSDS_OMM_VERS" version="2.0">
<header><CREATION_DATE/><ORIGINATOR/></header><body><segment><metadata><OBJECT_NAME>KUIPER-00149</OBJECT_NAME><OBJECT_ID>2025-228X</OBJECT_ID><CENTER_NAME>EARTH</CENTER_NAME><REF_FRAME>TEME</REF_FRAME><TIME_SYSTEM>UTC</TIME_SYSTEM><MEAN_ELEMENT_THEORY>SGP4</MEAN_ELEMENT_THEORY></metadata><data><meanElements><EPOCH>2025-12-05T22:31:37.415136</EPOCH><MEAN_MOTION>15.35933457</MEAN_MOTION><ECCENTRICITY>.00056271</ECCENTRICITY><INCLINATION>51.8816</INCLINATION><RA_OF_ASC_NODE>53.2221</RA_OF_ASC_NODE><ARG_OF_PERICENTER>346.5150</ARG_OF_PERICENTER><MEAN_ANOMALY>13.5685</MEAN_ANOMALY></meanElements><tleParameters><EPHEMERIS_TYPE>0</EPHEMERIS_TYPE><CLASSIFICATION_TYPE>U</CLASSIFICATION_TYPE><NORAD_CAT_ID>65968</NORAD_CAT_ID><ELEMENT_SET_NO>999</ELEMENT_SET_NO><REV_AT_EPOCH>937</REV_AT_EPOCH><BSTAR>.14733503E-2</BSTAR><MEAN_MOTION_DOT>.52329E-3</MEAN_MOTION_DOT><MEAN_MOTION_DDOT>0</MEAN_MOTION_DDOT></tleParameters></data></segment></body></omm>
<omm id="CCSDS_OMM_VERS" version="2.0">
<header><CREATION_DATE/><ORIGINATOR/></header><body><segment><metadata><OBJECT_NAME>KUIPER-00154</OBJECT_NAME><OBJECT_ID>2025-228Y</OBJECT_ID><CENTER_NAME>EARTH</CENTER_NAME><REF_FRAME>TEME</REF_FRAME><TIME_SYSTEM>UTC</TIME_SYSTEM><MEAN_ELEMENT_THEORY>SGP4</MEAN_ELEMENT_THEORY></metadata><data><meanElements><EPOCH>2025-12-05T22:37:20.174304</EPOCH><MEAN_MOTION>15.35681429</MEAN_MOTION><ECCENTRICITY>.00059454</ECCENTRICITY><INCLINATION>51.8805</INCLINATION><RA_OF_ASC_NODE>53.2469</RA_OF_ASC_NODE><ARG_OF_PERICENTER>339.9050</ARG_OF_PERICENTER><MEAN_ANOMALY>20.1702</MEAN_ANOMALY></meanElements><tleParameters><EPHEMERIS_TYPE>0</EPHEMERIS_TYPE><CLASSIFICATION_TYPE>U</CLASSIFICATION_TYPE><NORAD_CAT_ID>65969</NORAD_CAT_ID><ELEMENT_SET_NO>999</ELEMENT_SET_NO><REV_AT_EPOCH>937</REV_AT_EPOCH><BSTAR>.15313133E-2</BSTAR><MEAN_MOTION_DOT>.53978E-3</MEAN_MOTION_DOT><MEAN_MOTION_DDOT>0</MEAN_MOTION_DDOT></tleParameters></data></segment></body></omm>

</ndm>
